OBJECT_NAME,OBJECT_ID,EPOCH,MEAN_MOTION,ECCENTRICITY,INCLINATION,RA_OF_ASC_NODE,ARG_OF_PERICENTER,MEAN_ANOMALY,EPHEMERIS_TYPE,CLASSIFICATION_TYPE,NORAD_CAT_ID,ELEMENT_SET_NO,REV_AT_EPOCH,BSTAR,MEAN_MOTION_DOT,MEAN_MOTION_DDOT
PAKSAT-1R,2011-042A,2026-07-12T03:25:33.129120,1.00266895,.0003075,0.7511,84.3666,349.1050,305.9739,0,U,37779,999,5472,0,.156E-5,0
SES-2,2011-049A,2026-07-12T02:49:54.794784,1.00270855,.0002685,0.1198,91.4710,20.7117,133.3109,0,U,37809,999,5421,0,-.193E-5,0
ARABSAT-5C,2011-049B,2026-07-12T03:20:26.117952,1.00270117,.0003486,0.0482,12.7572,113.9452,233.4303,0,U,37810,999,5428,0,.126E-5,0
EUTELSAT 7 WEST A,2011-051A,2026-07-12T03:12:41.858784,1.00270524,.0004547,0.0647,340.4023,146.1301,204.3517,0,U,37816,999,5412,0,-.58E-6,0
QUETZSAT 1,2011-054A,2026-07-12T02:52:47.021088,1.00272007,.0002547,0.0100,12.4644,106.4784,137.2776,0,U,37826,999,5012,0,-.239E-5,0
INTELSAT 18 (IS-18),2011-056A,2026-07-12T04:21:38.557728,1.00273001,.0001714,0.0192,302.2276,185.8431,47.4232,0,U,37834,999,5406,0,.56E-6,0
EUTELSAT 16A,2011-057A,2026-07-12T03:19:18.725952,1.00272669,.0005825,0.0382,10.8400,96.8001,248.2088,0,U,37836,999,758,0,.107E-5,0
VIASAT-1,2011-059A,2026-07-11T23:16:35.222304,1.00270786,.0002037,0.0254,35.6361,76.1943,52.0840,0,U,37843,999,4757,0,0,0
ASIASAT 7,2011-069A,2026-07-12T00:19:32.252736,1.00273392,.0001222,0.0168,33.1136,47.0155,320.1649,0,U,37933,999,4510,0,-.331E-5,0
BEIDOU-2 IGSO-5,2011-073A,2026-07-02T17:30:18.330912,1.00270596,.01145273,47.6496,271.3544,222.0502,141.5350,0,U,37948,999,5329,0,-.128E-5,0
LUCH-5A,2011-074B,2026-07-11T14:47:04.758720,1.00272645,.00025575,8.8131,73.4475,59.2319,185.5811,0,U,37951,999,5329,0,-.53E-6,0
NIGCOMSAT 1R,2011-077A,2026-07-12T03:26:55.495968,1.00269171,.0002641,0.0260,127.6000,220.8474,35.8198,0,U,38014,999,5320,0,.148E-5,0
WGS F4 (USA 233),2012-003A,2026-07-12T03:29:38.637312,1.00268599,.0000679,0.0274,44.9308,115.7253,270.2188,0,U,38070,999,4439,0,0,0
SES-4,2012-007A,2026-07-12T03:08:27.267360,1.00271459,.0002519,0.0186,67.6859,47.6954,199.7648,0,U,38087,999,5247,0,-.165E-5,0
BEIDOU-2 G5,2012-008A,2026-07-12T03:31:32.553984,1.00269384,.0007341,3.6323,69.5367,269.5993,62.4731,0,U,38091,999,5261,0,.57E-6,0
MUOS-1,2012-009A,2026-07-12T04:19:35.691744,1.00271995,.0057094,5.5256,47.1224,3.3261,204.5732,0,U,38093,999,5269,0,-.13E-5,0
INTELSAT 22 (IS-22),2012-011A,2026-07-12T04:32:21.943104,1.00271219,.0001939,0.0406,70.6732,62.7633,296.8296,0,U,38098,999,743,0,0,0
APSTAR-7,2012-013A,2026-07-12T04:12:21.898944,1.00271173,.0002969,0.0189,61.9262,60.8455,306.8978,0,U,38107,999,5205,0,-.99E-6,0
YAHSAT 1B,2012-016A,2026-07-12T03:28:17.865408,1.00269941,.0003325,0.0884,88.6656,44.2514,256.7929,0,U,38245,999,4585,0,.129E-5,0
AEHF-2 (USA 235),2012-019A,2026-07-11T20:19:25.579776,1.00272489,.00022213,6.7059,57.3031,53.1002,107.7029,0,U,38254,999,723,0,-.137E-5,0
JCSAT-13,2012-023A,2026-07-12T00:24:46.751328,1.00276206,.000242,0.0144,42.1355,78.7447,299.2450,0,U,38331,999,5178,0,-.353E-5,0
VINASAT-2,2012-023B,2026-07-11T22:44:23.308800,1.00271860,.0002107,0.0153,347.4546,126.2484,289.0874,0,U,38332,999,4690,0,-.325E-5,0
NIMIQ 6,2012-026A,2026-07-12T01:30:06.321024,1.00271546,.0002532,0.0151,0.4405,112.6014,108.3404,0,U,38342,999,5066,0,-.171E-5,0
ZHONGXING-2A,2012-028A,2026-07-12T02:52:21.430272,1.00271853,.0001445,1.5152,83.5739,34.6200,313.1699,0,U,38352,999,5154,0,-.291E-5,0
INTELSAT 19 (IS-19),2012-030A,2026-07-12T04:02:07.123200,1.00271086,.0003067,0.0140,44.2268,80.5473,31.8166,0,U,38356,999,5070,0,-.54E-6,0
ECHOSTAR 17,2012-035A,2026-07-11T14:45:37.504224,1.00269719,.0001991,0.0035,101.0347,6.5534,296.2365,0,U,38551,999,5130,0,-.7E-6,0
METEOSAT-10 (MSG-3),2012-035B,2026-07-11T20:24:10.125216,1.00270156,.00010853,4.7275,60.8953,18.1594,156.7978,0,U,38552,999,5110,0,-.8E-7,0
SES-5,2012-036A,2026-07-12T03:16:11.524800,1.00271056,.000194,0.0458,319.6218,155.4420,228.9913,0,U,38652,999,4470,0,.36E-6,0
INTELSAT 20 (IS-20),2012-043A,2026-07-12T04:32:21.943104,1.00270629,.0001132,0.0124,61.9506,108.1621,256.5584,0,U,38740,999,5099,0,-.22E-6,0
HYLAS 2,2012-043B,2026-07-12T02:54:01.901376,1.00271371,.0002346,2.4889,80.7658,55.5713,124.6124,0,U,38741,999,5102,0,-.257E-5,0
INTELSAT 21 (IS-21),2012-045A,2026-07-12T02:58:13.246752,1.00270863,.0001718,0.0038,98.7643,34.3630,143.4420,0,U,38749,999,5077,0,-.282E-5,0
ASTRA 2F,2012-051A,2026-07-12T03:22:40.902816,1.00264643,.0002219,0.0567,235.7171,304.5311,188.6608,0,U,38778,999,4138,0,.152E-5,0
