PAKSAT-1R               
1 37779U 11042A   26193.14274455  .00000156  00000+0  00000+0 0  9994
2 37779   0.7511  84.3666 0003075 349.1050 305.9739  1.00266895 54720
SES-2                   
1 37809U 11049A   26193.11799531 -.00000193  00000+0  00000+0 0  9991
2 37809   0.1198  91.4710 0002685  20.7117 133.3109  1.00270855 54219
ARABSAT-5C              
1 37810U 11049B   26193.13919118  .00000126  00000+0  00000+0 0  9995
2 37810   0.0482  12.7572 0003486 113.9452 233.4303  1.00270117 54281
EUTELSAT 7 WEST A       
1 37816U 11051A   26193.13381781 -.00000058  00000+0  00000+0 0  9998
2 37816   0.0647 340.4023 0004547 146.1301 204.3517  1.00270524 54121
QUETZSAT 1              
1 37826U 11054A   26193.11998867 -.00000239  00000+0  00000+0 0  9990
2 37826   0.0100  12.4644 0002547 106.4784 137.2776  1.00272007 50128
INTELSAT 18 (IS-18)     
1 37834U 11056A   26193.18169627  .00000056  00000+0  00000+0 0  9998
2 37834   0.0192 302.2276 0001714 185.8431  47.4232  1.00273001 54065
EUTELSAT 16A            
1 37836U 11057A   26193.13841118  .00000107  00000+0  00000+0 0  9995
2 37836   0.0382  10.8400 0005825  96.8001 248.2088  1.00272669  7584
VIASAT-1                
1 37843U 11059A   26192.96985211  .00000000  00000+0  00000+0 0  9990
2 37843   0.0254  35.6361 0002037  76.1943  52.0840  1.00270786 47577
ASIASAT 7               
1 37933U 11069A   26193.01356774 -.00000331  00000+0  00000+0 0  9992
2 37933   0.0168  33.1136 0001222  47.0155 320.1649  1.00273392 45100
BEIDOU-2 IGSO-5         
1 37948U 11073A   26183.72937883 -.00000128  00000+0  00000+0 0  9990
2 37948  47.6496 271.3544 0114527 222.0502 141.5350  1.00270596 53296
LUCH-5A                 
1 37951U 11074B   26192.61602730 -.00000053  00000+0  00000+0 0  9990
2 37951   8.8131  73.4475 0002557  59.2319 185.5811  1.00272645 53291
NIGCOMSAT 1R            
1 38014U 11077A   26193.14369787  .00000148  00000+0  00000+0 0  9999
2 38014   0.0260 127.6000 0002641 220.8474  35.8198  1.00269171 53203
WGS F4 (USA 233)        
1 38070U 12003A   26193.14558608  .00000000  00000+0  00000+0 0  9990
2 38070   0.0274  44.9308 0000679 115.7253 270.2188  1.00268599 44395
SES-4                   
1 38087U 12007A   26193.13087115 -.00000165  00000+0  00000+0 0  9994
2 38087   0.0186  67.6859 0002519  47.6954 199.7648  1.00271459 52477
BEIDOU-2 G5             
1 38091U 12008A   26193.14690456  .00000057  00000+0  00000+0 0  9998
2 38091   3.6323  69.5367 0007341 269.5993  62.4731  1.00269384 52614
MUOS-1                  
1 38093U 12009A   26193.18027421 -.00000130  00000+0  00000+0 0  9994
2 38093   5.5256  47.1224 0057094   3.3261 204.5732  1.00271995 52697
INTELSAT 22 (IS-22)     
1 38098U 12011A   26193.18914286  .00000000  00000+0  00000+0 0  9991
2 38098   0.0406  70.6732 0001939  62.7633 296.8296  1.00271219  7433
APSTAR-7                
1 38107U 12013A   26193.17525346 -.00000099  00000+0  00000+0 0  9997
2 38107   0.0189  61.9262 0002969  60.8455 306.8978  1.00271173 52054
YAHSAT 1B               
1 38245U 12016A   26193.14465122  .00000129  00000+0  00000+0 0  9998
2 38245   0.0884  88.6656 0003325  44.2514 256.7929  1.00269941 45850
AEHF-2 (USA 235)        
1 38254U 12019A   26192.84682384 -.00000137  00000+0  00000+0 0  9998
2 38254   6.7059  57.3031 0002221  53.1002 107.7029  1.00272489  7239
JCSAT-13                
1 38331U 12023A   26193.01720777 -.00000353  00000+0  00000+0 0  9998
2 38331   0.0144  42.1355 0002420  78.7447 299.2450  1.00276206 51780
VINASAT-2               
1 38332U 12023B   26192.94749200 -.00000325  00000+0  00000+0 0  9991
2 38332   0.0153 347.4546 0002107 126.2484 289.0874  1.00271860 46902
NIMIQ 6                 
1 38342U 12026A   26193.06257316 -.00000171  00000+0  00000+0 0  9990
2 38342   0.0151   0.4405 0002532 112.6014 108.3404  1.00271546 50662
ZHONGXING-2A            
1 38352U 12028A   26193.11969248 -.00000291  00000+0  00000+0 0  9996
2 38352   1.5152  83.5739 0001445  34.6200 313.1699  1.00271853 51545
INTELSAT 19 (IS-19)     
1 38356U 12030A   26193.16813800 -.00000054  00000+0  00000+0 0  9997
2 38356   0.0140  44.2268 0003067  80.5473  31.8166  1.00271086 50703
ECHOSTAR 17             
1 38551U 12035A   26192.61501741 -.00000070  00000+0  00000+0 0  9994
2 38551   0.0035 101.0347 0001991   6.5534 296.2365  1.00269719 51308
METEOSAT-10 (MSG-3)     
1 38552U 12035B   26192.85011719 -.00000008  00000+0  00000+0 0  9993
2 38552   4.7275  60.8953 0001085  18.1594 156.7978  1.00270156 51105
SES-5                   
1 38652U 12036A   26193.13624450  .00000036  00000+0  00000+0 0  9999
2 38652   0.0458 319.6218 0001940 155.4420 228.9913  1.00271056 44709
INTELSAT 20 (IS-20)     
1 38740U 12043A   26193.18914286 -.00000022  00000+0  00000+0 0  9995
2 38740   0.0124  61.9506 0001132 108.1621 256.5584  1.00270629 50999
HYLAS 2                 
1 38741U 12043B   26193.12085534 -.00000257  00000+0  00000+0 0  9995
2 38741   2.4889  80.7658 0002346  55.5713 124.6124  1.00271371 51021
INTELSAT 21 (IS-21)     
1 38749U 12045A   26193.12376443 -.00000282  00000+0  00000+0 0  9995
2 38749   0.0038  98.7643 0001718  34.3630 143.4420  1.00270863 50771
ASTRA 2F                
1 38778U 12051A   26193.14075119  .00000152  00000+0  00000+0 0  9997
2 38778   0.0567 235.7171 0002219 304.5311 188.6608  1.00264643 41389
